{
    "links": {
        "self": "http://www.neowsapp.com/rest/v1/neo/3515474?api_key=iIulBulltgU6a56xZRHN4H3l9WmuAYTsLGpBGhQ2"
    },
    "id": "3515474",
    "neo_reference_id": "3515474",
    "name": "(2010 GJ30)",
    "designation": "2010 GJ30",
    "nasa_jpl_url": "http://ssd.jpl.nasa.gov/sbdb.cgi?sstr=3515474",
    "absolute_magnitude_h": 24.6,
    "estimated_diameter": {
        "kilometers": {
            "estimated_diameter_min": 0.0319561887,
            "estimated_diameter_max": 0.0714562102
        },
        "meters": {
            "estimated_diameter_min": 31.9561886721,
            "estimated_diameter_max": 71.4562101727
        },
        "miles": {
            "estimated_diameter_min": 0.0198566489,
            "estimated_diameter_max": 0.0444008168
        },
        "feet": {
            "estimated_diameter_min": 104.8431420431,
            "estimated_diameter_max": 234.436392583
        }
    },
    "is_potentially_hazardous_asteroid": false,
    "close_approach_data": [
        {
            "close_approach_date": "2010-04-16",
            "close_approach_date_full": "2010-Apr-16 20:57",
            "epoch_date_close_approach": 1271451420000,
            "relative_velocity": {
                "kilometers_per_second": "11.6765667436",
                "kilometers_per_hour": "42035.6402771368",
                "miles_per_hour": "26119.3121488687"
            },
            "miss_distance": {
                "astronomical": "0.0977568876",
                "lunar": "38.0274292764",
                "kilometers": "14624222.162789412",
                "miles": "9087070.2789094056"
            },
            "orbiting_body": "Earth"
        }
    ],
    "orbital_data": {
        "orbit_id": "8",
        "orbit_determination_date": "2017-04-06 08:57:50",
        "first_observation_date": "2010-04-10",
        "last_observation_date": "2010-04-14",
        "data_arc_in_days": 4,
        "observations_used": 30,
        "orbit_uncertainty": "9",
        "minimum_orbit_intersection": ".0899651",
        "jupiter_tisserand_invariant": "4.487",
        "epoch_osculation": "2455297.5",
        "eccentricity": ".261778843949161",
        "semi_major_axis": "1.475785498636632",
        "inclination": "20.8459777499661",
        "ascending_node_longitude": "25.69758013484828",
        "orbital_period": "654.8371123519981",
        "perihelion_distance": "1.089456076886598",
        "perihelion_argument": "192.1624684707937",
        "aphelion_distance": "1.862114920386665",
        "perihelion_time": "2455312.702362214370",
        "mean_anomaly": "351.6424248199431",
        "mean_motion": ".5497550355797294",
        "equinox": "J2000",
        "orbit_class": {
            "orbit_class_type": "AMO",
            "orbit_class_description": "Near-Earth asteroid orbits similar to that of 1221 Amor",
            "orbit_class_range": "1.017 AU < q (perihelion) < 1.3 AU"
        }
    },
    "is_sentry_object": false
}